CCSDS_OMM_VERS = 2.0
CREATION_DATE  = 
ORIGINATOR     = 

OBJECT_NAME    = ORBVIEW 2 (SEASTAR)
OBJECT_ID      = 1997-037A
CENTER_NAME    = EARTH
REF_FRAME      = TEME
TIME_SYSTEM    = UTC
MEAN_ELEMENT_THEORY = SGP/SGP4

EPOCH          = 2025-11-27T07:13:35.046912
MEAN_MOTION    = 14.35399142
ECCENTRICITY   = .00024115
INCLINATION    = 98.8451
RA_OF_ASC_NODE = 127.9876
ARG_OF_PERICENTER = 27.1705
MEAN_ANOMALY   = 332.9605

EPHEMERIS_TYPE = 0
CLASSIFICATION_TYPE = U
NORAD_CAT_ID   = 24883
ELEMENT_SET_NO = 999
REV_AT_EPOCH   = 49378
BSTAR          = .13357694E-3
MEAN_MOTION_DOT = .337E-5
MEAN_MOTION_DDOT = 0

CCSDS_OMM_VERS = 2.0
CREATION_DATE  = 
ORIGINATOR     = 

OBJECT_NAME    = SL-16 R/B
OBJECT_ID      = 1998-043G
CENTER_NAME    = EARTH
REF_FRAME      = TEME
TIME_SYSTEM    = UTC
MEAN_ELEMENT_THEORY = SGP/SGP4

EPOCH          = 2025-11-26T20:54:13.521312
MEAN_MOTION    = 14.26019673
ECCENTRICITY   = .0009098
INCLINATION    = 98.8100
RA_OF_ASC_NODE = 278.6023
ARG_OF_PERICENTER = 317.9143
MEAN_ANOMALY   = 42.1337

EPHEMERIS_TYPE = 0
CLASSIFICATION_TYPE = U
NORAD_CAT_ID   = 25400
ELEMENT_SET_NO = 999
REV_AT_EPOCH   = 42433
BSTAR          = .65536E-4
MEAN_MOTION_DOT = .111E-5
MEAN_MOTION_DDOT = 0

CCSDS_OMM_VERS = 2.0
CREATION_DATE  = 
ORIGINATOR     = 

OBJECT_NAME    = SL-16 R/B
OBJECT_ID      = 1998-045B
CENTER_NAME    = EARTH
REF_FRAME      = TEME
TIME_SYSTEM    = UTC
MEAN_ELEMENT_THEORY = SGP/SGP4

EPOCH          = 2025-11-27T07:06:04.667904
MEAN_MOTION    = 14.16171751
ECCENTRICITY   = .00078655
INCLINATION    = 71.0127
RA_OF_ASC_NODE = 36.9049
ARG_OF_PERICENTER = 198.8544
MEAN_ANOMALY   = 161.2289

EPHEMERIS_TYPE = 0
CLASSIFICATION_TYPE = U
NORAD_CAT_ID   = 25407
ELEMENT_SET_NO = 999
REV_AT_EPOCH   = 41260
BSTAR          = .17741021E-3
MEAN_MOTION_DOT = .304E-5
MEAN_MOTION_DDOT = 0

CCSDS_OMM_VERS = 2.0
CREATION_DATE  = 
ORIGINATOR     = 

OBJECT_NAME    = ISS (ZARYA)
OBJECT_ID      = 1998-067A
CENTER_NAME    = EARTH
REF_FRAME      = TEME
TIME_SYSTEM    = UTC
MEAN_ELEMENT_THEORY = SGP/SGP4

EPOCH          = 2025-11-27T04:33:10.200096
MEAN_MOTION    = 15.49112807
ECCENTRICITY   = .00038133
INCLINATION    = 51.6312
RA_OF_ASC_NODE = 219.4533
ARG_OF_PERICENTER = 172.8713
MEAN_ANOMALY   = 187.2330

EPHEMERIS_TYPE = 0
CLASSIFICATION_TYPE = U
NORAD_CAT_ID   = 25544
ELEMENT_SET_NO = 999
REV_AT_EPOCH   = 54044
BSTAR          = .18731196E-3
MEAN_MOTION_DOT = .9924E-4
MEAN_MOTION_DDOT = 0

CCSDS_OMM_VERS = 2.0
CREATION_DATE  = 
ORIGINATOR     = 

OBJECT_NAME    = CZ-4B R/B
OBJECT_ID      = 1999-025C
CENTER_NAME    = EARTH
REF_FRAME      = TEME
TIME_SYSTEM    = UTC
MEAN_ELEMENT_THEORY = SGP/SGP4

EPOCH          = 2025-11-27T01:56:26.355840
MEAN_MOTION    = 14.18237810
ECCENTRICITY   = .00360353
INCLINATION    = 98.6791
RA_OF_ASC_NODE = 12.7094
ARG_OF_PERICENTER = 280.2251
MEAN_ANOMALY   = 108.6960

EPHEMERIS_TYPE = 0
CLASSIFICATION_TYPE = U
NORAD_CAT_ID   = 25732
ELEMENT_SET_NO = 999
REV_AT_EPOCH   = 37362
BSTAR          = .71332756E-4
MEAN_MOTION_DOT = .104E-5
MEAN_MOTION_DDOT = 0

CCSDS_OMM_VERS = 2.0
CREATION_DATE  = 
ORIGINATOR     = 

OBJECT_NAME    = OKEAN-O
OBJECT_ID      = 1999-039A
CENTER_NAME    = EARTH
REF_FRAME      = TEME
TIME_SYSTEM    = UTC
MEAN_ELEMENT_THEORY = SGP/SGP4

EPOCH          = 2025-11-27T04:09:46.126656
MEAN_MOTION    = 14.80120978
ECCENTRICITY   = .00010065
INCLINATION    = 97.9625
RA_OF_ASC_NODE = 27.0084
ARG_OF_PERICENTER = 71.5301
MEAN_ANOMALY   = 288.6020

EPHEMERIS_TYPE = 0
CLASSIFICATION_TYPE = U
NORAD_CAT_ID   = 25860
ELEMENT_SET_NO = 999
REV_AT_EPOCH   = 41922
BSTAR          = .12513536E-3
MEAN_MOTION_DOT = .897E-5
MEAN_MOTION_DDOT = 0

CCSDS_OMM_VERS = 2.0
CREATION_DATE  = 
ORIGINATOR     = 

OBJECT_NAME    = SL-16 R/B
OBJECT_ID      = 1999-039B
CENTER_NAME    = EARTH
REF_FRAME      = TEME
TIME_SYSTEM    = UTC
MEAN_ELEMENT_THEORY = SGP/SGP4

EPOCH          = 2025-11-27T02:47:00.630528
MEAN_MOTION    = 14.81552139
ECCENTRICITY   = .00138351
INCLINATION    = 98.0148
RA_OF_ASC_NODE = 25.2647
ARG_OF_PERICENTER = 226.7149
MEAN_ANOMALY   = 133.2910

EPHEMERIS_TYPE = 0
CLASSIFICATION_TYPE = U
NORAD_CAT_ID   = 25861
ELEMENT_SET_NO = 999
REV_AT_EPOCH   = 42167
BSTAR          = .10316782E-3
MEAN_MOTION_DOT = .757E-5
MEAN_MOTION_DDOT = 0

CCSDS_OMM_VERS = 2.0
CREATION_DATE  = 
ORIGINATOR     = 

OBJECT_NAME    = DELTA 2 R/B
OBJECT_ID      = 1999-041E
CENTER_NAME    = EARTH
REF_FRAME      = TEME
TIME_SYSTEM    = UTC
MEAN_ELEMENT_THEORY = SGP/SGP4

EPOCH          = 2025-11-27T06:37:50.185920
MEAN_MOTION    = 14.11340534
ECCENTRICITY   = .05049006
INCLINATION    = 51.7623
RA_OF_ASC_NODE = 350.1721
ARG_OF_PERICENTER = 46.1993
MEAN_ANOMALY   = 317.9565

EPHEMERIS_TYPE = 0
CLASSIFICATION_TYPE = U
NORAD_CAT_ID   = 25876
ELEMENT_SET_NO = 999
REV_AT_EPOCH   = 34856
BSTAR          = .18442469E-3
MEAN_MOTION_DOT = .897E-5
MEAN_MOTION_DDOT = 0

CCSDS_OMM_VERS = 2.0
CREATION_DATE  = 
ORIGINATOR     = 

OBJECT_NAME    = HELIOS 1B
OBJECT_ID      = 1999-064A
CENTER_NAME    = EARTH
REF_FRAME      = TEME
TIME_SYSTEM    = UTC
MEAN_ELEMENT_THEORY = SGP/SGP4

EPOCH          = 2025-11-27T06:17:00.879936
MEAN_MOTION    = 14.87184108
ECCENTRICITY   = .00023386
INCLINATION    = 98.1749
RA_OF_ASC_NODE = 225.4693
ARG_OF_PERICENTER = 63.2641
MEAN_ANOMALY   = 296.8813

EPHEMERIS_TYPE = 0
CLASSIFICATION_TYPE = U
NORAD_CAT_ID   = 25977
ELEMENT_SET_NO = 999
REV_AT_EPOCH   = 67003
BSTAR          = .27476354E-3
MEAN_MOTION_DOT = .2414E-4
MEAN_MOTION_DDOT = 0

CCSDS_OMM_VERS = 2.0
CREATION_DATE  = 
ORIGINATOR     = 

OBJECT_NAME    = TERRA
OBJECT_ID      = 1999-068A
CENTER_NAME    = EARTH
REF_FRAME      = TEME
TIME_SYSTEM    = UTC
MEAN_ELEMENT_THEORY = SGP/SGP4

EPOCH          = 2025-11-27T06:02:23.397216
MEAN_MOTION    = 14.60925443
ECCENTRICITY   = .00032052
INCLINATION    = 97.9770
RA_OF_ASC_NODE = 23.5025
ARG_OF_PERICENTER = 129.3436
MEAN_ANOMALY   = 272.9452

EPHEMERIS_TYPE = 0
CLASSIFICATION_TYPE = U
NORAD_CAT_ID   = 25994
ELEMENT_SET_NO = 999
REV_AT_EPOCH   = 38012
BSTAR          = .12913402E-3
MEAN_MOTION_DOT = .588E-5
MEAN_MOTION_DDOT = 0

CCSDS_OMM_VERS = 2.0
CREATION_DATE  = 
ORIGINATOR     = 

OBJECT_NAME    = SL-16 R/B
OBJECT_ID      = 2000-006B
CENTER_NAME    = EARTH
REF_FRAME      = TEME
TIME_SYSTEM    = UTC
MEAN_ELEMENT_THEORY = SGP/SGP4

EPOCH          = 2025-11-27T06:50:02.676480
MEAN_MOTION    = 14.15803083
ECCENTRICITY   = .00175825
INCLINATION    = 71.0023
RA_OF_ASC_NODE = 313.1543
ARG_OF_PERICENTER = 330.3508
MEAN_ANOMALY   = 29.6617

EPHEMERIS_TYPE = 0
CLASSIFICATION_TYPE = U
NORAD_CAT_ID   = 26070
ELEMENT_SET_NO = 999
REV_AT_EPOCH   = 33406
BSTAR          = .17010962E-3
MEAN_MOTION_DOT = .287E-5
MEAN_MOTION_DDOT = 0

CCSDS_OMM_VERS = 2.0
CREATION_DATE  = 
ORIGINATOR     = 

OBJECT_NAME    = TITAN 4B R/B
OBJECT_ID      = 2000-047B
CENTER_NAME    = EARTH
REF_FRAME      = TEME
TIME_SYSTEM    = UTC
MEAN_ELEMENT_THEORY = SGP/SGP4

EPOCH          = 2025-11-27T05:30:43.736832
MEAN_MOTION    = 15.08610898
ECCENTRICITY   = .00401741
INCLINATION    = 67.9903
RA_OF_ASC_NODE = 328.4104
ARG_OF_PERICENTER = 162.9359
MEAN_ANOMALY   = 197.3152

EPHEMERIS_TYPE = 0
CLASSIFICATION_TYPE = U
NORAD_CAT_ID   = 26474
ELEMENT_SET_NO = 999
REV_AT_EPOCH   = 37745
BSTAR          = .24133204E-3
MEAN_MOTION_DOT = .372E-4
MEAN_MOTION_DDOT = 0

