ORBVIEW 2 (SEASTAR)     
1 24883U 97037A   25331.30110008  .00000337  00000+0  13358-3 0  9993
2 24883  98.8451 127.9876 0002411  27.1705 332.9605 14.35399142493782
SL-16 R/B               
1 25400U 98043G   25330.87098983  .00000111  00000+0  65536-4 0  9991
2 25400  98.8100 278.6023 0009098 317.9143  42.1337 14.26019673424336
SL-16 R/B               
1 25407U 98045B   25331.29588736  .00000304  00000+0  17741-3 0  9995
2 25407  71.0127  36.9049 0007865 198.8544 161.2289 14.16171751412600
ISS (ZARYA)             
1 25544U 98067A   25331.18970139  .00009924  00000+0  18731-3 0  9998
2 25544  51.6312 219.4533 0003813 172.8713 187.2330 15.49112807540440
CZ-4B R/B               
1 25732U 99025C   25331.08086060  .00000104  00000+0  71333-4 0  9991
2 25732  98.6791  12.7094 0036035 280.2251 108.6960 14.18237810373627
OKEAN-O                 
1 25860U 99039A   25331.17345054  .00000897  00000+0  12514-3 0  9993
2 25860  97.9625  27.0084 0001006  71.5301 288.6020 14.80120978419220
SL-16 R/B               
1 25861U 99039B   25331.11597952  .00000757  00000+0  10317-3 0  9998
2 25861  98.0148  25.2647 0013835 226.7149 133.2910 14.81552139421679
DELTA 2 R/B             
1 25876U 99041E   25331.27627530  .00000897  00000+0  18442-3 0  9992
2 25876  51.7623 350.1721 0504900  46.1993 317.9565 14.11340534348561
HELIOS 1B               
1 25977U 99064A   25331.26181574  .00002414  00000+0  27476-3 0  9995
2 25977  98.1749 225.4693 0002338  63.2641 296.8813 14.87184108670034
TERRA                   
1 25994U 99068A   25331.25165969  .00000588  00000+0  12913-3 0  9997
2 25994  97.9770  23.5025 0003205 129.3436 272.9452 14.60925443380128
SL-16 R/B               
1 26070U 00006B   25331.28475320  .00000287  00000+0  17011-3 0  9995
2 26070  71.0023 313.1543 0017582 330.3508  29.6617 14.15803083334065
TITAN 4B R/B            
1 26474U 00047B   25331.22967288  .00003720  00000+0  24133-3 0  9999
2 26474  67.9903 328.4104 0040174 162.9359 197.3152 15.08610898377452
